SAC-D
1 37673U 11024A   13305.42211829 +.00000000 +00000+0 +13996-4 6  9015
2 37673  98.0129 310.9026 0001403  83.9928 151.4875 14.72320897128257
